0 THORAD DELTA 1 DEB
1 10392U 74089EH  13281.66615534 -.00000058  00000-0 -66818-4 0  4155
2 10392 101.8442 329.7363 0050763 041.4557 085.3794 12.60045339791182
0 THORAD DELTA 1 DEB
1 10392U 74089EH  13284.11217361 -.00000034  00000-0  72594-4 0  4166
2 10392 101.8439 332.2064 0050719 036.6841 020.9350 12.60045083791491
0 THORAD DELTA 1 DEB
1 10392U 74089EH  13286.41707362 -.00000018  00000-0  16293-3 0  4172
2 10392 101.8435 334.5342 0050708 032.1876 036.3525 12.60045053791782
0 THORAD DELTA 1 DEB
1 10392U 74089EH  13288.96924920 -.00000026  00000-0  11830-3 0  4187
2 10392 101.8426 337.1117 0050682 027.2066 093.4553 12.60045240792108
0 THORAD DELTA 1 DEB
1 10392U 74089EH  13291.09266751 -.00000039  00000-0  43458-4 0  4193
2 10392 101.8421 339.2559 0050635 023.0656 005.6392 12.60045427792375
0 THORAD DELTA 1 DEB
1 10392U 74089EH  13294.35505939 -.00000052  00000-0 -34125-4 0  4208
2 10392 101.8419 342.5499 0050603 016.6850 044.4210 12.60045638792780
